TRANSPORTER-16 OBJECT AH
1 68447U 26067AH  26104.13552066  .00004408  00000+0  21982-3 0  9991
2 68447  97.4471  63.5612 0001241 125.4554 234.6795 15.18048210  2222
