{
  "norad_id": 68447,
  "name": "TRANSPORTER-16 OBJECT AH",
  "history": [
    {
      "epoch": "2026-04-14T03:15:08.985024Z",
      "apogee_km": 512.5949775193612,
      "perigee_km": 510.8849100619118,
      "latitude_deg": -8.489144426146813e-05,
      "longitude_deg": 172.45748472387515,
      "height_km": 515.3209729296143,
      "semi_major_axis_km": 6889.876943790636,
      "eccentricity": 0.0001241,
      "inclination_deg": 97.4471,
      "raan_deg": 63.5612,
      "arg_perigee_deg": 125.4554,
      "mean_anomaly_deg": 234.6795,
      "mean_motion_rev_day": 15.1804821
    }
  ]
}